STARLINK-31863          
1 59789U 24093H   26068.46042682  .00000928  00000+0  43258-4 0  9994
2 59789  43.0004 209.9087 0001219 266.9233  93.1479 15.27574977102662
HERMES-3                
1 63835U 25052BR  26068.93751242  .00020316  00000+0  69958-3 0  9995
2 63835  97.3987 324.6131 0007993 112.9583 247.2502 15.30039785 54863
